0 METEOR 2-19
1 20670U 90057A   13282.80032297  .00000036  00000-0  18229-4 0  5309
2 20670 082.5495 002.9013 0017064 136.3133 359.8687 13.84582585176686
0 METEOR 2-19
1 20670U 90057A   13284.15840207  .00000042  00000-0  24179-4 0  5316
2 20670 082.5495 001.8222 0017118 132.7279 288.9803 13.84582455176876
0 METEOR 2-19
1 20670U 90057A   13286.17320991  .00000056  00000-0  36595-4 0  5335
2 20670 082.5493 000.2212 0017176 127.4391 251.4133 13.84582422177153
0 METEOR 2-19
1 20670U 90057A   13287.33915603  .00000074  00000-0  52255-4 0  5346
2 20670 082.5490 359.2948 0017230 124.3772 302.8557 13.84582426177316
0 METEOR 2-19
1 20670U 90057A   13288.50764954  .00000076  00000-0  54032-4 0  5355
2 20670 082.5488 358.3663 0017219 121.3830 006.9196 13.84582462177474
0 METEOR 2-19
1 20670U 90057A   13289.65995022  .00000056  00000-0  36777-4 0  5369
2 20670 082.5484 357.4505 0017209 118.4207 350.2834 13.84582659177639
0 METEOR 2-19
1 20670U 90057A   13290.67171900  .00000056  00000-0  36079-4 0  5370
2 20670 082.5482 356.6464 0017224 115.7736 353.2474 13.84582829177773
0 METEOR 2-19
1 20670U 90057A   13291.76182801  .00000052  00000-0  32909-4 0  5388
2 20670 082.5480 355.7800 0017239 112.9497 026.6554 13.84582964177921
0 METEOR 2-19
1 20670U 90057A   13292.77348896  .00000046  00000-0  27613-4 0  5398
2 20670 082.5479 354.9760 0017236 110.3540 029.0314 13.84583139178065
0 METEOR 2-19
1 20670U 90057A   13293.78336230  .00000029  00000-0  12563-4 0  5400
2 20670 082.5478 354.1733 0017246 107.7300 022.5308 13.84583261178204
0 METEOR 2-19
1 20670U 90057A   13294.79671906  .00000022  00000-0  57875-5 0  5414
2 20670 082.5478 353.3679 0017246 105.1114 033.3791 13.84583290178342
0 METEOR 2-19
1 20670U 90057A   13295.80872368  .00000029  00000-0  12233-4 0  5428
2 20670 082.5478 352.5635 0017231 102.4813 037.5035 13.84583238178489
